STARLINK-2713           
1 48602U 21041BB  26068.66670139  .00017496  00000+0  60221-3 0  9998
2 48602  53.1595 113.9599 0000876  75.4197  44.6441 15.30159001  5756
HAWK-11B                
1 62379U 24247C   26068.44730104  .00009093  00000+0  32842-3 0  9993
2 62379  45.0161 115.7610 0004690 333.0326  27.0314 15.28847070 67738
